STARLINK-31231          
1 59034U 24038M   26076.96588789  .00000922  00000+0  43016-4 0  9999
2 59034  42.9996 336.8557 0000755 285.1177  74.9591 15.27588888115953
STARLINK-31207          
1 59035U 24038N   26077.02746415  .00000081  00000+0  12470-4 0  9996
2 59035  43.0052 336.4578 0001211 273.5730  86.4983 15.27553335116135
STARLINK-31217          
1 59036U 24038P   26077.14017178  .00003266  00000+0  12519-3 0  9998
2 59036  43.0000 241.4245 0001031 254.6045 105.4693 15.28366491117232
STARLINK-31208          
1 59037U 24038Q   26077.00268496  .00002776  00000+0  11043-3 0  9991
2 59037  43.0046 340.5419 0001055 268.2857  91.7874 15.27565071116089
STARLINK-31235          
1 59038U 24038R   26077.02487730  .00001609  00000+0  68033-4 0  9994
2 59038  43.0020 336.4357 0001509 282.2328  77.8355 15.27558796116074
STARLINK-31220          
1 59039U 24038S   26077.02694666  .00001218  00000+0  53782-4 0  9994
2 59039  43.0012 339.8972 0001731 305.6170  54.4521 15.27588646116037
STARLINK-31225          
1 59040U 24038T   26077.01072569  .00003745  00000+0  14558-3 0  9991
2 59040  43.0052 336.2911 0001240 274.3662  85.7048 15.27576294115968
STARLINK-31240          
1 59041U 24038U   26076.98390348  .00001562  00000+0  66287-4 0  9997
2 59041  43.0046 336.9920 0001309 272.1436  87.9266 15.27572654116064
STARLINK-31202          
1 59042U 24038V   26076.98724948  .00005521  00000+0  20874-3 0  9995
2 59042  43.0020 336.1634 0001493 258.0987 101.9697 15.27778996116139
STARLINK-31234          
1 59043U 24038W   26076.97748643  .00000352  00000+0  22308-4 0  9995
2 59043  43.0003 336.9378 0000936 220.7558 139.3224 15.27563674115950
STARLINK-31153          
1 59044U 24038X   26077.02098723  .00008508  00000+0  31811-3 0  9999
2 59044  43.0031 336.4064 0001465 255.1578 104.9111 15.27603310115967
STARLINK-31241          
1 59045U 24038Y   26076.98132217  .00004207  00000+0  16228-3 0  9998
2 59045  42.9992 336.9668 0001710 250.5998 109.4669 15.27586254116129
STARLINK-31205          
1 59046U 24038Z   26076.97364104  .00019524  00000+0  71875-3 0  9997
2 59046  43.0031 336.9123 0000866 168.3182 191.7690 15.27505191116066
STARLINK-31265          
1 59074U 24041A   26076.87751105  .00002299  00000+0  93079-4 0  9994
2 59074  43.0017 264.4704 0001284 281.2114  78.8593 15.27572511115523
STARLINK-31276          
1 59075U 24041B   26077.23770632  .00000409  00000+0  24399-4 0  9992
2 59075  43.0028 262.0188 0001132 244.4611 115.6123 15.27574463115630
STARLINK-31259          
1 59076U 24041C   26076.78385314  .00001554  00000+0  65990-4 0  9995
2 59076  43.0018 264.6341 0001192 237.1694 122.9043 15.27571162114460
