[{"OBJECT_NAME":"STARLINK-31231","OBJECT_ID":"2024-038M","EPOCH":"2026-03-17T23:10:52.713696","MEAN_MOTION":15.27588888,"ECCENTRICITY":7.553e-5,"INCLINATION":42.9996,"RA_OF_ASC_NODE":336.8557,"ARG_OF_PERICENTER":285.1177,"MEAN_ANOMALY":74.9591,"EPHEMERIS_TYPE":0,"CLASSIFICATION_TYPE":"U","NORAD_CAT_ID":59034,"ELEMENT_SET_NO":999,"REV_AT_EPOCH":11595,"BSTAR":4.3015832e-5,"MEAN_MOTION_DOT":9.22e-6,"MEAN_MOTION_DDOT":0},{"OBJECT_NAME":"STARLINK-31207","OBJECT_ID":"2024-038N","EPOCH":"2026-03-18T00:39:32.902560","MEAN_MOTION":15.27553335,"ECCENTRICITY":0.00012119,"INCLINATION":43.0052,"RA_OF_ASC_NODE":336.4578,"ARG_OF_PERICENTER":273.573,"MEAN_ANOMALY":86.4983,"EPHEMERIS_TYPE":0,"CLASSIFICATION_TYPE":"U","NORAD_CAT_ID":59035,"ELEMENT_SET_NO":999,"REV_AT_EPOCH":11613,"BSTAR":1.2470073e-5,"MEAN_MOTION_DOT":8.1e-7,"MEAN_MOTION_DDOT":0},{"OBJECT_NAME":"STARLINK-31217","OBJECT_ID":"2024-038P","EPOCH":"2026-03-18T03:21:50.841792","MEAN_MOTION":15.28366491,"ECCENTRICITY":0.00010318,"INCLINATION":43,"RA_OF_ASC_NODE":241.4245,"ARG_OF_PERICENTER":254.6045,"MEAN_ANOMALY":105.4693,"EPHEMERIS_TYPE":0,"CLASSIFICATION_TYPE":"U","NORAD_CAT_ID":59036,"ELEMENT_SET_NO":999,"REV_AT_EPOCH":11723,"BSTAR":0.00012518984,"MEAN_MOTION_DOT":3.266e-5,"MEAN_MOTION_DDOT":0},{"OBJECT_NAME":"STARLINK-31208","OBJECT_ID":"2024-038Q","EPOCH":"2026-03-18T00:03:51.980544","MEAN_MOTION":15.27565071,"ECCENTRICITY":0.0001055,"INCLINATION":43.0046,"RA_OF_ASC_NODE":340.5419,"ARG_OF_PERICENTER":268.2857,"MEAN_ANOMALY":91.7874,"EPHEMERIS_TYPE":0,"CLASSIFICATION_TYPE":"U","NORAD_CAT_ID":59037,"ELEMENT_SET_NO":999,"REV_AT_EPOCH":11608,"BSTAR":0.00011042673,"MEAN_MOTION_DOT":2.776e-5,"MEAN_MOTION_DDOT":0},{"OBJECT_NAME":"STARLINK-31235","OBJECT_ID":"2024-038R","EPOCH":"2026-03-18T00:35:49.398720","MEAN_MOTION":15.27558796,"ECCENTRICITY":0.00015099,"INCLINATION":43.002,"RA_OF_ASC_NODE":336.4357,"ARG_OF_PERICENTER":282.2328,"MEAN_ANOMALY":77.8355,"EPHEMERIS_TYPE":0,"CLASSIFICATION_TYPE":"U","NORAD_CAT_ID":59038,"ELEMENT_SET_NO":999,"REV_AT_EPOCH":11607,"BSTAR":6.803315e-5,"MEAN_MOTION_DOT":1.609e-5,"MEAN_MOTION_DDOT":0},{"OBJECT_NAME":"STARLINK-31220","OBJECT_ID":"2024-038S","EPOCH":"2026-03-18T00:38:48.191424","MEAN_MOTION":15.27588646,"ECCENTRICITY":0.0001731,"INCLINATION":43.0012,"RA_OF_ASC_NODE":339.8972,"ARG_OF_PERICENTER":305.617,"MEAN_ANOMALY":54.4521,"EPHEMERIS_TYPE":0,"CLASSIFICATION_TYPE":"U","NORAD_CAT_ID":59039,"ELEMENT_SET_NO":999,"REV_AT_EPOCH":11603,"BSTAR":5.3781751e-5,"MEAN_MOTION_DOT":1.218e-5,"MEAN_MOTION_DDOT":0},{"OBJECT_NAME":"STARLINK-31225","OBJECT_ID":"2024-038T","EPOCH":"2026-03-18T00:15:26.699616","MEAN_MOTION":15.27576294,"ECCENTRICITY":0.00012402,"INCLINATION":43.0052,"RA_OF_ASC_NODE":336.2911,"ARG_OF_PERICENTER":274.3662,"MEAN_ANOMALY":85.7048,"EPHEMERIS_TYPE":0,"CLASSIFICATION_TYPE":"U","NORAD_CAT_ID":59040,"ELEMENT_SET_NO":999,"REV_AT_EPOCH":11596,"BSTAR":0.00014557667,"MEAN_MOTION_DOT":3.745e-5,"MEAN_MOTION_DDOT":0},{"OBJECT_NAME":"STARLINK-31240","OBJECT_ID":"2024-038U","EPOCH":"2026-03-17T23:36:49.260672","MEAN_MOTION":15.27572654,"ECCENTRICITY":0.00013098,"INCLINATION":43.0046,"RA_OF_ASC_NODE":336.992,"ARG_OF_PERICENTER":272.1436,"MEAN_ANOMALY":87.9266,"EPHEMERIS_TYPE":0,"CLASSIFICATION_TYPE":"U","NORAD_CAT_ID":59041,"ELEMENT_SET_NO":999,"REV_AT_EPOCH":11606,"BSTAR":6.6286733e-5,"MEAN_MOTION_DOT":1.562e-5,"MEAN_MOTION_DDOT":0},{"OBJECT_NAME":"STARLINK-31202","OBJECT_ID":"2024-038V","EPOCH":"2026-03-17T23:41:38.355072","MEAN_MOTION":15.27778996,"ECCENTRICITY":0.0001493,"INCLINATION":43.002,"RA_OF_ASC_NODE":336.1634,"ARG_OF_PERICENTER":258.0987,"MEAN_ANOMALY":101.9697,"EPHEMERIS_TYPE":0,"CLASSIFICATION_TYPE":"U","NORAD_CAT_ID":59042,"ELEMENT_SET_NO":999,"REV_AT_EPOCH":11613,"BSTAR":0.00020873975,"MEAN_MOTION_DOT":5.521e-5,"MEAN_MOTION_DDOT":0},{"OBJECT_NAME":"STARLINK-31234","OBJECT_ID":"2024-038W","EPOCH":"2026-03-17T23:27:34.827552","MEAN_MOTION":15.27563674,"ECCENTRICITY":9.363e-5,"INCLINATION":43.0003,"RA_OF_ASC_NODE":336.9378,"ARG_OF_PERICENTER":220.7558,"MEAN_ANOMALY":139.3224,"EPHEMERIS_TYPE":0,"CLASSIFICATION_TYPE":"U","NORAD_CAT_ID":59043,"ELEMENT_SET_NO":999,"REV_AT_EPOCH":11595,"BSTAR":2.2307822e-5,"MEAN_MOTION_DOT":3.52e-6,"MEAN_MOTION_DDOT":0},{"OBJECT_NAME":"STARLINK-31153","OBJECT_ID":"2024-038X","EPOCH":"2026-03-18T00:30:13.296672","MEAN_MOTION":15.2760331,"ECCENTRICITY":0.00014652,"INCLINATION":43.0031,"RA_OF_ASC_NODE":336.4064,"ARG_OF_PERICENTER":255.1578,"MEAN_ANOMALY":104.9111,"EPHEMERIS_TYPE":0,"CLASSIFICATION_TYPE":"U","NORAD_CAT_ID":59044,"ELEMENT_SET_NO":999,"REV_AT_EPOCH":11596,"BSTAR":0.00031810931,"MEAN_MOTION_DOT":8.508e-5,"MEAN_MOTION_DDOT":0},{"OBJECT_NAME":"STARLINK-31241","OBJECT_ID":"2024-038Y","EPOCH":"2026-03-17T23:33:06.235488","MEAN_MOTION":15.27586254,"ECCENTRICITY":0.00017102,"INCLINATION":42.9992,"RA_OF_ASC_NODE":336.9668,"ARG_OF_PERICENTER":250.5998,"MEAN_ANOMALY":109.4669,"EPHEMERIS_TYPE":0,"CLASSIFICATION_TYPE":"U","NORAD_CAT_ID":59045,"ELEMENT_SET_NO":999,"REV_AT_EPOCH":11612,"BSTAR":0.00016228128,"MEAN_MOTION_DOT":4.207e-5,"MEAN_MOTION_DDOT":0},{"OBJECT_NAME":"STARLINK-31205","OBJECT_ID":"2024-038Z","EPOCH":"2026-03-17T23:22:02.585856","MEAN_MOTION":15.27505191,"ECCENTRICITY":8.664e-5,"INCLINATION":43.0031,"RA_OF_ASC_NODE":336.9123,"ARG_OF_PERICENTER":168.3182,"MEAN_ANOMALY":191.769,"EPHEMERIS_TYPE":0,"CLASSIFICATION_TYPE":"U","NORAD_CAT_ID":59046,"ELEMENT_SET_NO":999,"REV_AT_EPOCH":11606,"BSTAR":0.00071875117,"MEAN_MOTION_DOT":0.00019524,"MEAN_MOTION_DDOT":0},{"OBJECT_NAME":"STARLINK-31265","OBJECT_ID":"2024-041A","EPOCH":"2026-03-17T21:03:36.954720","MEAN_MOTION":15.27572511,"ECCENTRICITY":0.0001284,"INCLINATION":43.0017,"RA_OF_ASC_NODE":264.4704,"ARG_OF_PERICENTER":281.2114,"MEAN_ANOMALY":78.8593,"EPHEMERIS_TYPE":0,"CLASSIFICATION_TYPE":"U","NORAD_CAT_ID":59074,"ELEMENT_SET_NO":999,"REV_AT_EPOCH":11552,"BSTAR":9.3079297e-5,"MEAN_MOTION_DOT":2.299e-5,"MEAN_MOTION_DDOT":0},{"OBJECT_NAME":"STARLINK-31276","OBJECT_ID":"2024-041B","EPOCH":"2026-03-18T05:42:17.826048","MEAN_MOTION":15.27574463,"ECCENTRICITY":0.00011327,"INCLINATION":43.0028,"RA_OF_ASC_NODE":262.0188,"ARG_OF_PERICENTER":244.4611,"MEAN_ANOMALY":115.6123,"EPHEMERIS_TYPE":0,"CLASSIFICATION_TYPE":"U","NORAD_CAT_ID":59075,"ELEMENT_SET_NO":999,"REV_AT_EPOCH":11563,"BSTAR":2.439886e-5,"MEAN_MOTION_DOT":4.09e-6,"MEAN_MOTION_DDOT":0},{"OBJECT_NAME":"STARLINK-31259","OBJECT_ID":"2024-041C","EPOCH":"2026-03-17T18:48:44.911296","MEAN_MOTION":15.27571162,"ECCENTRICITY":0.00011927,"INCLINATION":43.0018,"RA_OF_ASC_NODE":264.6341,"ARG_OF_PERICENTER":237.1694,"MEAN_ANOMALY":122.9043,"EPHEMERIS_TYPE":0,"CLASSIFICATION_TYPE":"U","NORAD_CAT_ID":59076,"ELEMENT_SET_NO":999,"REV_AT_EPOCH":11446,"BSTAR":6.5989873e-5,"MEAN_MOTION_DOT":1.554e-5,"MEAN_MOTION_DDOT":0}]
